#aV2006 12 23  0  0   .00000000      96 DD+AD WGS84 FIT  NGA
## 1406 518400.00000000   900.00000000 54092  .0000000000000
+   30     1  2  3  4  5  6  7  8  9 10 11 12 13 14 16 17 18
+         19 20 21 22 23 24 25 26 27 28 29 30 31  0  0  0  0
+          0  0  0  0  0  0  0  0  0  0  0  0  0  0  0  0  0
+          0  0  0  0  0  0  0  0  0  0  0  0  0  0  0  0  0
+          0  0  0  0  0  0  0  0  0  0  0  0  0  0  0  0  0
++         0  0  0  0  0  0  0  0  0  0  0  0  0  0  0  0  0
++         0  0  0  0  0  0  0  0  0  0  0  0  0  0  0  0  0
++         0  0  0  0  0  0  0  0  0  0  0  0  0  0  0  0  0
++         0  0  0  0  0  0  0  0  0  0  0  0  0  0  0  0  0
++         0  0  0  0  0  0  0  0  0  0  0  0  0  0  0  0  0
%c cc cc ccc ccc cccc cccc cccc cccc ccccc ccccc ccccc ccccc
%c cc cc ccc ccc cccc cccc cccc cccc ccccc ccccc ccccc ccccc
%f  0.0000000  0.000000000  0.00000000000  0.000000000000000
%f  0.0000000  0.000000000  0.00000000000  0.000000000000000
%i    0    0    0    0      0      0      0      0         0
%i    0    0    0    0      0      0      0      0         0
/*      NGA, ST. LOUIS,MO.                                  
/*   EPHEMERIS COMPUTED FROM  3 DAYS OF DATA                
/* CCCCCCCCCCCCCCCCCCCCCCCCCCCCCCCCCCCCCCCCCCCCCCCCCCCCCCCCC
/* CCCCCCCCCCCCCCCCCCCCCCCCCCCCCCCCCCCCCCCCCCCCCCCCCCCCCCCCC
*  2006 12 23 10 15   .00000000                                                 
P  1  14336.537192 -21663.681055   5576.500579     96.992840                    
V  1   5919.809738  -3842.439528 -31375.609605       .021875                    
P  2  -7871.388198  13965.479277  20905.451077     66.561144                    
V  2 -26728.818163  -4994.421328  -6893.610254       .034851                    
P  3   8975.505133 -23722.919346  -7494.459196    476.864515                    
V  3   8452.973690  -5665.525085  29148.436932       .182037                    
P  4 -21259.143391   6902.888257  14564.347274    348.674596                    
V  4 -17828.581353  -5317.551419 -23051.475568       .032006                    
P  5  13662.958085  22589.683811   3365.748876    441.247864                    
V  5  -1040.748374   5552.231747 -30780.940072       .188591                    
P  6  15978.234288   4555.227021  20914.857017    495.952677                    
V  6 -15178.259526  21413.057012   6939.811933      -.193789                    
P  7  19123.310407  -3256.394078  18502.097565    466.493216                    
V  7 -11871.515245  19627.538619  15962.971523      -.097828                    
P  8 -25968.107488   -714.483447  -6675.765142    -90.625007                    
V  8  -7660.492526  -3450.215193  30322.369295      -.014387                    
P  9  12214.172545  14789.778523 -19050.126208     50.006676                    
V  9 -22871.644772  -1631.875467 -16201.011695       .015866                    
P 10   -493.410118  23383.271768  12176.745964     94.791753                    
V 10  -7469.106065 -14026.842057  26728.527352       .005290                    
P 11 -15423.597489 -13622.801537 -17025.976924       .768125                    
V 11  21587.751557  -2623.412701 -17264.499116       .013596                    
P 12  12117.231990  23313.456575   4127.367016    -79.190314                    
V 12   -698.107610   5745.881103 -31159.288938       .090746                    
P 13 -16180.261279  -2065.713595  20862.189753    125.228367                    
V 13  16918.445236 -20563.476716  11078.768207       .038388                    
P 14  20241.000153 -13912.033114  -9936.785066      2.472862                    
V 14  -6777.406828  10928.576012 -28930.497196       .011115                    
P 16   4332.163532 -20651.900325  16131.082388    104.756937                    
V 16   8857.444364  18457.940558  21477.579950       .039719                    
P 17 -20310.321224  13835.792613  -9935.628912     85.247770                    
V 17   5964.324522 -11458.972785 -28279.119413      -.015403                    
P 18  16810.767553   8884.780320 -18542.546852   -253.653220                    
V 18   6219.545925  22934.496544  16195.480449      -.002110                    
P 19   3013.708531 -20453.209254 -16528.338473     48.027894                    
V 19  15824.464453 -14264.904092  20508.054035       .043096                    
P 20 -13642.588720 -21817.952354   6573.214697    -21.848927                    
V 20   -466.216867  -8916.649762 -30110.046809      -.000696                    
P 21  26402.371387   4953.721156   -250.851236     66.024008                    
V 21   -149.135314   2984.950945  30954.872429       .012830                    
P 22  14309.183616  -5474.396468 -21534.438423    157.584304                    
V 22   8727.392765  26349.091453   -910.249040       .022875                    
P 23  -8679.543540 -12740.196810  21526.932789    143.589791                    
V 23  17735.944684 -21050.865801  -5474.980440       .011152                    
P 24  -1105.203306  15432.110939  21791.539970     62.431095                    
V 24 -26674.132789  -5297.188250   2718.291625       .032568                    
P 25  15412.384452 -12031.904584  18454.118470    399.434228                    
V 25  22429.832294   2830.871438 -17109.185380      -.064087                    
P 26  -3336.914454  20492.185036 -16623.845522    -60.261566                    
V 26 -14516.912720  14558.154596  21945.535746      -.171836                    
P 27 -25831.071900  -5635.831335   4466.039149     84.650900                    
V 27   5053.082901  -1941.786849  30933.685248       .020607                    
P 28 -15552.351743    624.273180 -21255.956426     11.357058                    
V 28  -9006.624908 -26162.619883   5392.851321      -.010860                    
P 29  -7291.136799  22048.243752 -12349.186783    277.192793                    
V 29 -11605.431919  11363.285927  26968.560190       .209689                    
P 30  17063.264834  14882.442862  13669.962814     20.324118                    
V 30   4642.305464  17434.552665 -24129.801927       .012773                    
P 31  18214.995857  -9315.166237  17157.399498    -16.332193                    
V 31  20883.801532   4930.855532 -19676.293475       .069713                    
EOF
